address,city,fax,latitude,longitude,organization_id,organization_name,organization_unit_id,organization_unit_name,phone,postal_code,province_id
185 Ash Drive,Grand Junction,(837) 834-5418,46.420797,-104.351172,1,O'Reilly,1,Medibank Private Limited,(450) 308-3503,R6D 3Z1,9
158 Otter St,Kansas City,(134) 489-5943,54.13021,-105.061905,1,O'Reilly,2,Centennial Mining Limited,1-593-182-2313,O4O 4P6,9
99 Chesella Av,Kokomo,944-203-9573,43.778689,-86.345122,1,O'Reilly,3,The High Heelers,318-700-6728,A5B 4J2,9
478 Durocher Av,Urbandale,799.726.6602,52.930444,-82.073604,1,O'Reilly,4,Paxton Media Group,1-652-822-7026,S7P 8A3,9
694 Yale Drive,Denison,1-561-980-3967,44.155064,-86.906649,1,O'Reilly,5,Ennox Group Ltd,1-748-350-4202,Y1U 6M4,9
631 Ontario Way,Daphne,444-007-5795,47.444263,-112.85385,1,O'Reilly,6,Tianmei Beverage Group Corporation Limited,(477) 772-4489,E2F 7J0,9
1208 Laporte Street,Pueblo,1-569-521-5450,52.354115,-103.601137,1,O'Reilly,7,4Ds Memory Limited,(837) 677-6495,B6C 4X0,9
338 Osgoode Way,Providence,277.080.7359,46.557212,-111.102315,1,O'Reilly,8,Yash Technologies,133-938-8257,O6F 6Y2,9
927 Sedona Street,Cortland,(963) 361-6673,46.106068,-73.791274,1,O'Reilly,9,Target Realty,1-946-950-8995,W3Z 0U6,9
771 Fleet Avenue,North Miami,(220) 127-4973,50.681129,-99.142774,1,O'Reilly,10,Red River Resources Limited,095.325.8017,J9R 3A0,9
24 Kootenay Way,Garfield Heights,944-306-5908,51.25518,-84.035626,1,O'Reilly,11,Brookfield Prime Property Fund,1-247-497-4070,T2P 6W0,9
1053 Nora Avenue,Decatur,1-361-120-8173,42.802109,-117.466739,1,O'Reilly,12,Uscom Limited,1-036-453-9841,U2A 2A3,9
1156 Cantin Alley,Edinburg,694-813-9089,50.300252,-81.369417,1,O'Reilly,13,Horseshoe Metals Limited,826.710.8726,S4L 6J5,9
437 Tauvette St,Tullahoma,526-636-8434,49.165547,-117.288533,1,O'Reilly,14,Honeywell Asca,1-257-545-6161,T4X 1K5,9
772 Fieldrow Alley,Lehi,1-173-309-2644,50.370362,-94.020027,1,O'Reilly,15,Destiny Realty,642-942-0292,Z6H 4N0,9
938 Lennox Drive,La Crosse,333.942.5341,48.672511,-83.071164,1,O'Reilly,16,South Pacific Resources Limited,1-056-013-9237,L2C 4S2,9
761 Wellesley Av,Elmhurst,+1-(025)-220-6984,44.150591,-70.167708,1,O'Reilly,17,Mindax Limited,+1-(937)-315-2194,W3C 9E1,9
39 Vera Avenue,Parma Heights,(942) 594-8771,47.905452,-86.768925,1,O'Reilly,18,Alkane Resources Limited,950-199-3407,F0L 0G8,9
383 Back Place Avenue,New London,245-716-6261,44.286918,-85.065321,1,O'Reilly,19,Discover Financial Services,376.214.6745,T7U 0C7,9
593 Foxbar Alley,Kearney,1-479-206-9355,42.021466,-98.939752,1,O'Reilly,20,Chum,(935) 805-9318,M6F 8X8,9
875 Bloor Avenue,Palm Springs,406.116.0194,42.446454,-88.8455,1,O'Reilly,21,Arbitron,1-257-580-1944,H8W 0V7,9
293 Kedey Way,Minneapolis,(115) 493-1292,54.927392,-112.246025,2,Peterbilt,22,Silver Lake Resources Limited,+1-(564)-349-0337,Q2L 3O3,9
940 Aylmer Av,Lake Zurich,+1-(115)-894-7920,54.413717,-115.902536,2,Peterbilt,23,Frontier Digital Ventures Limited,576.038.1287,A3R 1L3,9
1152 Mcewen Way,Daly City,1-164-044-9629,51.683445,-88.620183,2,Peterbilt,24,Kidman Resources Limited,888.671.1426,W9R 0S0,9
782 Hyde St,Lindenhurst,173-657-6704,42.199387,-98.548073,3,Arkeia Software,25,Optiscan Imaging Limited,125-715-9220,Z9X 4T2,9
229 Carriere Avenue,Minnetonka,+1-(511)-787-8044,46.970895,-103.455864,3,Arkeia Software,26,Gold Touch,(781) 916-5836,U7B 8O7,9
161 Eldo Street,Arcadia,1-382-614-0735,47.822684,-93.842485,5,Garmin,27,Blina Minerals Nl,106.910.9407,W9A 7F0,9
608 Buck Drive,Blacksburg,(408) 462-2290,43.676508,-85.408831,5,Garmin,28,Gr Engineering Services Limited,833-701-8832,G2Q 1P9,9
706 Valin St,Roseville,702.165.8719,54.256943,-104.365438,4,Agriprocessors,29,Pro Garden Management,1-615-230-2133,R5P 5C7,4
1242 Melbourne Drive,Laguna Beach,001-801-7437,54.135446,-102.033862,5,Garmin,30,Ask Funding Limited,778-415-6956,W4S 8V3,9
265 Edith Alley,Woonsocket,464.217.0534,49.64737,-72.28895,5,Garmin,31,Orica Limited,1-989-342-9944,F4Q 3W8,9
172 Fairbairn Way,Walnut,865-142-5745,49.695367,-103.173533,3,Arkeia Software,32,Beacon Minerals Limited,+1-(190)-828-1482,T9W 2L2,9
1260 Selkirk Drive,Lenexa,207-597-9641,43.915375,-88.069561,5,Garmin,33,Force Commodities Limited,968.691.7163,D7P 8D7,9
1024 Pittaway Way,Strongsville,279.143.3674,45.287275,-111.371724,5,Garmin,34,Metcash Limited,329.110.3872,O7U 0R2,9
317 Buckles Av,Park Forest,(903) 897-3692,44.461108,-70.111912,5,Garmin,35,Southern Cross Exploration N.L.,860-288-3043,A3H 3F5,9
750 Berwick St,Carlsbad,176-126-3895,54.197241,-87.390861,5,Garmin,36,"Retech Technology., Co Limited",1-222-938-7691,W6P 1T3,9
1171 Crane St,Brighton,1-812-978-7264,46.343817,-105.084266,5,Garmin,37,Red Hat,505-911-5675,A7E 7S4,9
1129 Shelley Street,Pleasantville,650-288-4684,54.40232,-89.007988,5,Garmin,38,Apn Property Group Limited,(153) 468-1165,H1X 0M7,9
658 Langevin Drive,Sandusky,+1-(867)-145-6854,42.898627,-115.702884,5,Garmin,39,Freedom Foods Group Limited,800.405.2314,P0V 1Y5,9
484 Jackson St,Salisbury,467-274-0978,46.097478,-89.508813,1,O'Reilly,40,Exelon Corporation,(225) 703-9496,Z8G 7Q4,9
1337 Coleridge Street,Delray Beach,1-242-707-7068,45.673817,-93.987705,1,O'Reilly,41,Belle Ladi,792-216-3552,G7E 4C1,9
66 Prince Avenue,Doral,540.618.6955,43.364753,-74.871716,1,O'Reilly,42,Blackham Resources Limited,(162) 765-8617,J7Y 6U5,9
1066 Watterson Drive,Wilmington,712.053.9160,49.543017,-79.709862,2,Peterbilt,43,Gbm Gold Ltd,146.478.6475,X2X 6F5,9
309 Perrin Av,Holly Springs,858-893-9002,52.260813,-71.174786,6,Supervalu,44,Kazakhstan Potash Corporation Limited,956-628-5974,H3K 5O0,9
1277 St Georges Way,Maryland Heights,446.629.0251,42.392196,-77.802445,6,Supervalu,45,Colgate-Palmolive,127-352-6099,W8L 8F0,9
220 St Jean St,Round Lake Beach,829.560.2423,47.379821,-102.857913,2,Peterbilt,46,Data#3 Limited,774.326.4444,P1Q 6Z3,9
990 Lawson Way,Thornton,750.081.4633,49.136799,-73.582013,7,Arryx,47,Oz Minerals Limited,1-882-015-5052,Y4R 3J1,6
1362 Gavin Avenue,Eastlake,699.106.6639,50.601958,-74.842298,5,Garmin,48,Zig Zag Children Clothes,1-864-832-9628,V2F 9P0,9
1287 Dunster St,Hazleton,+1-(769)-097-1780,51.831965,-110.532105,3,Arkeia Software,49,Full Color,1-793-118-8695,C1Z 2U7,9
456 Trillium Av,Brooklyn Park,(881) 249-7915,46.944774,-119.423006,1,O'Reilly,50,Mesoblast Limited,1-784-366-9417,T7N 0J8,9
940 Watts Av,Bryan,071.329.0846,49.783924,-72.411699,3,Arkeia Software,51,Imperial Oil,(811) 891-5496,U6K 7S5,9
1346 Roanoke Street,Brawley,+1-(306)-324-7815,46.007748,-89.870514,2,Peterbilt,52,Predictive Discovery Limited,(248) 369-5033,R0M 8K7,9
1228 Rainsford Alley,Orlando,1-838-016-2524,51.812889,-92.704765,8,Goodyear Tire and Rubber Company,53,360 Capital Total Return Fund,(549) 708-3104,G6T 6R1,9
1270 Nantes Way,Waxahachie,(209) 155-9354,54.308329,-107.02312,1,O'Reilly,54,Konsili,187-916-5308,F5T 3Y1,9
314 Atoll Av,Lehi,673-866-1871,44.140637,-86.947726,5,Garmin,55,Shopping Centres Australasia Property Group,940-479-5755,F5D 7T7,9
612 Clare Alley,Los Banos,1-030-624-3673,42.651324,-90.869271,9,Asiatic Solutions,56,Propertylink Group,(719) 252-9425,F2A 5I5,9
660 Fraser Avenue,Benicia,620-290-3314,44.37636,-115.451404,10,TransDigm Group,57,Affinity Investment Group,(078) 710-2810,N9T 9N3,9
491 Edgewater Way,Temple City,1-001-765-8220,54.736678,-83.084978,9,Asiatic Solutions,58,Canadian Oil Sands Trust,1-606-089-2941,P3L 7M7,9
834 Penhill Avenue,Orinda,(899) 727-0105,47.996641,-94.731749,10,TransDigm Group,59,Nuenergy Gas Limited,(939) 013-8442,B1I 0F0,9
714 St Joseph Avenue,El Monte,304-311-0401,54.818657,-77.472978,5,Garmin,61,Minrex Resources Limited,(878) 830-7359,C6Z 7X5,9
166 Marson St,Helena,(781) 470-1611,54.836131,-96.581363,11,Pantone,62,Aetna,1-998-523-8656,M3B 2S3,9
570 Marten Street,Gadsden,806-234-4151,53.779862,-74.053716,11,Pantone,63,Sino Gas & Energy Holdings Limited,021.406.0340,Z9Y 2C2,9
897 Coleway Av,Berea,943-858-2201,49.644092,-85.147099,12,Crazy Tiger,64,The Jolly Farmer,1-172-719-0271,C8L 4U0,9
1246 Oakdale Way,Nogales,831.265.1942,49.25573,-112.607045,12,Crazy Tiger,65,Wolf Petroleum Ltd,952.185.0812,X3S 7T7,9
317 Taggart Way,Gretna,(575) 256-1342,50.227113,-116.497455,12,Crazy Tiger,66,Expeditors International,627.096.0949,I2E 5G3,9
1375 Carillon Drive,Allentown,892.771.0345,43.721827,-91.373379,12,Crazy Tiger,67,Blackwall Property Trust,(339) 191-6280,G6T 5Q3,9
423 Arnhem Way,Saratoga,(150) 773-1028,46.674611,-97.54716,328,Chevron,68,Ideal Industries,789-044-5743,A7L 9A1,9
1056 Bluebird Alley,Schertz,712.010.1931,44.320051,-117.233658,328,Chevron,69,Netzero,803-823-9005,I0R 6D5,9
506 47 Avenue,Kirksville,495-958-3197,48.65412,-96.195326,6,Supervalu,70,Medigard Limited,+1-(283)-932-0970,B8P 4Z2,9
1091 Central Way,Delray Beach,(413) 447-6793,45.688537,-106.73637,6,Supervalu,71,Macmahon Holdings Limited,106-728-2083,P7K 6H4,9
946 Beech Av,Amarillo,854.358.1326,47.969381,-92.837869,2,Peterbilt,72,Interstate Batteries,1-408-355-8998,P1F 4B9,9
1341 Iris Street,Ankeny,(553) 433-8192,46.301655,-103.326828,1,O'Reilly,73,Moly Mines Limited,314-253-1242,D9P 8S3,9
1056 Bristol Way,Jeffersonville,(201) 244-8324,54.270835,-89.363618,12,Crazy Tiger,74,Colonial Holding Company Limited,(214) 730-3786,A2M 3I6,9
171 Van Rens Street,Edmonds,(444) 505-8900,47.764984,-75.880871,7,Arryx,75,Indiewealth,+1-(085)-551-6398,B9I 0Y5,6
693 7th Alley,Friendswood,173.147.5581,52.755836,-109.481095,13,Greyvoid,76,Afterpay Holdings Limited,(860) 587-3380,D5I 2R0,7
973 Carkner Drive,La Verne,742-807-0619,51.631006,-72.559958,14,"Ryder System, Inc.",77,Parts And Pieces,718-322-1393,Y8W 1K1,9
693 Inverkip Way,Lisle,(636) 057-8610,48.951818,-75.207982,10,TransDigm Group,78,American Airlines,953-588-0011,N3S 7Z2,9
312 Owen Drive,Pearland,1-004-790-5864,47.270837,-115.186716,15,Del Monte Foods,79,Yowie Group Ltd,(438) 434-5109,A7P 5O7,7
1124 1 East Alley,Palmdale,1-150-696-8257,50.794755,-94.092803,16,Jones Soda Co.,80,Better Business Ideas And Services,(263) 138-5739,F3B 1O6,9
752 Palsen Way,Moore,+1-(473)-935-8051,49.176492,-88.110513,277,"Fred Meyer, Inc.",81,Applydirect Limited,591-806-5853,V4I 6T3,7
1318 Benjamin Way,Millbrook,818.242.5943,51.99763,-115.351426,18,Adaptabiz,82,Cedar Woods Properties Limited,(657) 429-8279,A2X 8R6,9
126 St Barbara Drive,Lacey,+1-(147)-020-8740,51.764989,-101.267943,19,"Olan Mills, Inc.",83,Advansed Teksyztems,099-090-7843,N3U 7W3,9
821 Eastgate Way,Santa Ana,1-488-170-5463,45.396865,-88.736709,10,TransDigm Group,84,Friendly Advice,1-652-062-0245,J8Y 1M7,9
994 Sunmeadow Avenue,Harrisonburg,1-695-454-2171,42.898178,-96.071617,277,"Fred Meyer, Inc.",85,Electric Boat,973.875.8263,F0K 0A5,7
465 Orville Drive,Texas City,581-426-5199,44.126742,-90.829969,20,Energy East,86,Mission G,+1-(319)-816-4064,R4V 8L7,9
191 Parc Du Village Drive,St. Louis,1-396-062-2993,42.120211,-100.133254,20,Energy East,87,E2 Metals Limited,+1-(026)-149-3889,H5T 2R7,9
226 Belledune Alley,Goose Creek,566-462-4092,45.929826,-98.554302,11,Pantone,88,American International Group,(158) 081-9563,N5M 9U9,9
1326 Berry Glen Avenue,Goldsboro,587.469.9496,48.411769,-71.594154,20,Energy East,89,Pc Power And Cooling,425-703-8748,C0B 9A9,9
834 Fourth South Drive,Pflugerville,(426) 743-8436,51.490365,-82.131694,21,Vertex Pharmaceuticals,90,Gowing Bros Limited,(657) 366-8082,Y2A 8J2,9
973 Sheppards Glen Drive,Lynchburg,1-789-018-6779,42.758693,-71.320722,1,O'Reilly,91,Arrowhead Resources Limited,1-649-307-3269,R2D 1L7,9
1250 Rueter Alley,Lynwood,1-175-213-2660,42.603026,-74.586606,18,Adaptabiz,92,Cooper Energy Limited,877.618.9776,J4V 0B5,9
753 Marlborough Street,Westerville,(598) 379-7363,53.791494,-72.561267,22,Salary.com,93,Avita Medical Ltd,751.548.5170,I1B 6P5,9
544 Premier Avenue,Laguna Niguel,(960) 767-0729,54.010959,-112.146571,23,Abbott Laboratories,94,Vocus Group Limited,(633) 474-9451,N4D 1S2,9
1291 Mill Street,Bozeman,(215) 913-7836,46.071785,-110.134229,1,O'Reilly,95,Warner Bros. Entertainment,1-297-815-5256,P4M 1P5,9
1329 Hanbury St,Fairfax,1-209-165-3399,54.907172,-71.879219,1,O'Reilly,96,Nextdc Limited,939.189.0045,U3F 9X6,9
909 Porter Av,Davis,826-078-3988,48.746352,-100.029725,1,O'Reilly,97,Ashley Services Group Limited,(291) 884-2449,Z0E 2M0,9
230 Regis Alley,Miami Beach,052.677.0008,50.752219,-85.474942,24,Tully's Coffee,98,Australia And New Zealand Banking Group Limited,418.601.1287,B4R 1N3,1
542 Pullen Way,Perris,(321) 722-3263,43.848809,-93.844847,24,Tully's Coffee,99,Novatti Group Limited,684-504-2130,O7L 5L3,1
708 Morningside St,La Porte,959-701-2711,48.964768,-107.106503,24,Tully's Coffee,100,Merlin Diamonds Limited,822.348.8065,E2V 9H5,1
512 Juliette Alley,Nogales,845-192-1075,45.710855,-86.493973,1,O'Reilly,101,News Corporation..,(637) 809-9247,C0B 8E9,9
